IRIDIUM 144             
1 43249U 18030A   24090.89254009  .00000018  00000+0 -69019-6 0  9996
2 43249  86.3912 268.1916 0002159  90.0428 270.1015 14.34217306314281
IRIDIUM 157             
1 43251U 18030C   24090.91790953  .00000239  00000+0  78121-4 0  9991
2 43251  86.3914 268.1921 0001903  97.6208 262.5204 14.34218212314289
IRIDIUM 140             
1 43252U 18030D   24090.93693517  .00000120  00000+0  35953-4 0  9997
2 43252  86.3914 268.1988 0002400  87.6036 272.5435 14.34218011314345
IRIDIUM 146             
1 43254U 18030F   24090.90522535  .00000209  00000+0  67504-4 0  9992
2 43254  86.3914 268.2011 0002133  83.4601 276.6837 14.34217119314282
IRIDIUM 148             
1 43255U 18030G   24090.94328198 -.00000154  00000+0 -62226-4 0  9993
2 43255  86.3914 268.2160 0001700  84.7335 275.4055 14.34215630314325
IRIDIUM 142             
1 43256U 18030H   24090.91156807 -.00000114  00000+0 -47627-4 0  9991
2 43256  86.3912 268.1477 0001969  84.5042 275.6378 14.34216584314288
